start=new Date('2022-03-15T00:00:00.000Z').valueOf();
sats=[{"LAUNCH_DATE":"2021-03-04","CLASSIFICATION_TYPE":"U","INCLINATION":"53.0546","TLE_LINE1":"1 47751U 21017AF  22073.76767108 -.00000800  00000-0 -34815-4 0  9996","DECAY_DATE":null,"ARG_OF_PERICENTER":"52.4108","SEMIMAJOR_AXIS":"6925.348","MEAN_MOTION":"15.06400193","MEAN_MOTION_DOT":"-0.00000800","RCS_SIZE":"MEDIUM","RA_OF_ASC_NODE":"247.4936","TIME_SYSTEM":"UTC","SITE":"AFETR","MEAN_MOTION_DDOT":"0.0000000000000","OBJECT_ID":"2021-017AF","PERIOD":"95.592","REV_AT_EPOCH":"5857","EPOCH":"2022-03-14T18:25:26.781312","EPHEMERIS_TYPE":"0","CENTER_NAME":"EARTH","MEAN_ANOMALY":"307.7033","BSTAR":"-0.00003481500000","FILE":"3359665","APOAPSIS":"548.373","NORAD_CAT_ID":"47751","REF_FRAME":"TEME","COUNTRY_CODE":"US","ECCENTRICITY":"0.00016750","OBJECT_NAME":"STARLINK-2168","GP_ID":"198768558","TLE_LINE2":"2 47751  53.0546 247.4936 0001675  52.4108 307.7033 15.06400193 58570","OBJECT_TYPE":"PAYLOAD","MEAN_ELEMENT_THEORY":"SGP4","PERIAPSIS":"546.053","ELEMENT_SET_NO":"999"},{"SEMIMAJOR_AXIS":"6925.325","ARG_OF_PERICENTER":"62.1706","TLE_LINE1":"1 47752U 21017AG  22073.80129210  .00001924  00000-0  14798-3 0  9991","DECAY_DATE":null,"INCLINATION":"53.0533","CLASSIFICATION_TYPE":"U","LAUNCH_DATE":"2021-03-04","RCS_SIZE":"MEDIUM","MEAN_MOTION_DOT":"0.00001924","MEAN_MOTION":"15.06407804","PERIOD":"95.592","OBJECT_ID":"2021-017AG","SITE":"AFETR","MEAN_MOTION_DDOT":"0.0000000000000","TIME_SYSTEM":"UTC","RA_OF_ASC_NODE":"262.3655","EPOCH":"2022-03-14T19:13:51.637440","REV_AT_EPOCH":"5841","FILE":"3359665","BSTAR":"0.00014798000000","MEAN_ANOMALY":"297.9440","CENTER_NAME":"EARTH","EPHEMERIS_TYPE":"0","COUNTRY_CODE":"US","ECCENTRICITY":"0.00015530","REF_FRAME":"TEME","NORAD_CAT_ID":"47752","APOAPSIS":"548.265","OBJECT_TYPE":"PAYLOAD","TLE_LINE2":"2 47752  53.0533 262.3655 0001553  62.1706 297.9440 15.06407804 58419","GP_ID":"198768809","OBJECT_NAME":"STARLINK-2169","ELEMENT_SET_NO":"999","PERIAPSIS":"546.114","MEAN_ELEMENT_THEORY":"SGP4"},{"PERIOD":"95.591","SITE":"AFETR","OBJECT_ID":"2021-017AH","MEAN_MOTION_DDOT":"0.0000000000000","TIME_SYSTEM":"UTC","RA_OF_ASC_NODE":"267.1699","EPOCH":"2022-03-14T20:14:14.554464","REV_AT_EPOCH":"5834","SEMIMAJOR_AXIS":"6925.290","ARG_OF_PERICENTER":"63.2361","TLE_LINE1":"1 47753U 21017AH  22073.84322401  .00008536  00000-0  59092-3 0  9995","DECAY_DATE":null,"INCLINATION":"53.0543","CLASSIFICATION_TYPE":"U","LAUNCH_DATE":"2021-03-04","MEAN_MOTION_DOT":"0.00008536","RCS_SIZE":"LARGE","MEAN_MOTION":"15.06419155","OBJECT_TYPE":"PAYLOAD","TLE_LINE2":"2 47753  53.0543 267.1699 0001693  63.2361 296.8801 15.06419155 58349","GP_ID":"198768057","OBJECT_NAME":"STARLINK-2170","ELEMENT_SET_NO":"999","PERIAPSIS":"545.982","MEAN_ELEMENT_THEORY":"SGP4","FILE":"3359665","BSTAR":"0.00059092000000","CENTER_NAME":"EARTH","MEAN_ANOMALY":"296.8801","EPHEMERIS_TYPE":"0","COUNTRY_CODE":"US","ECCENTRICITY":"0.00016930","REF_FRAME":"TEME","NORAD_CAT_ID":"47753","APOAPSIS":"548.327"},{"PERIOD":"95.592","TIME_SYSTEM":"UTC","RA_OF_ASC_NODE":"267.3096","SITE":"AFETR","OBJECT_ID":"2021-017AJ","MEAN_MOTION_DDOT":"0.0000000000000","EPOCH":"2022-03-14T19:31:46.486272","REV_AT_EPOCH":"5830","ARG_OF_PERICENTER":"65.8575","DECAY_DATE":null,"TLE_LINE1":"1 47754U 21017AJ  22073.81373248  .00001410  00000-0  11355-3 0  9992","SEMIMAJOR_AXIS":"6925.347","INCLINATION":"53.0558","LAUNCH_DATE":"2021-03-04","CLASSIFICATION_TYPE":"U","MEAN_MOTION_DOT":"0.00001410","RCS_SIZE":"LARGE","MEAN_MOTION":"15.06400566","TLE_LINE2":"2 47754  53.0558 267.3096 0001717  65.8575 294.2594 15.06400566 58304","OBJECT_TYPE":"PAYLOAD","OBJECT_NAME":"STARLINK-2171","GP_ID":"198768306","PERIAPSIS":"546.023","MEAN_ELEMENT_THEORY":"SGP4","ELEMENT_SET_NO":"999","MEAN_ANOMALY":"294.2594","CENTER_NAME":"EARTH","FILE":"3359665","BSTAR":"0.00011355000000","EPHEMERIS_TYPE":"0","REF_FRAME":"TEME","COUNTRY_CODE":"US","ECCENTRICITY":"0.00017170","NORAD_CAT_ID":"47754","APOAPSIS":"548.401"},{"REV_AT_EPOCH":"5868","EPOCH":"2022-03-14T17:05:21.266016","PERIOD":"91.893","SITE":"AFETR","MEAN_MOTION_DDOT":"0.0000000000000","OBJECT_ID":"2021-017AK","RA_OF_ASC_NODE":"239.1928","TIME_SYSTEM":"UTC","MEAN_MOTION_DOT":"0.00427037","RCS_SIZE":"LARGE","MEAN_MOTION":"15.67044950","SEMIMAJOR_AXIS":"6745.501","DECAY_DATE":null,"TLE_LINE1":"1 47755U 21017AK  22073.71205169  .00427037  00000-0  37363-2 0  9991","ARG_OF_PERICENTER":"36.9162","CLASSIFICATION_TYPE":"U","LAUNCH_DATE":"2021-03-04","INCLINATION":"53.0507","ELEMENT_SET_NO":"999","MEAN_ELEMENT_THEORY":"SGP4","PERIAPSIS":"365.723","OBJECT_TYPE":"PAYLOAD","TLE_LINE2":"2 47755  53.0507 239.1928 0002436  36.9162 323.2020 15.67044950 58686","GP_ID":"198769058","OBJECT_NAME":"STARLINK-2172","COUNTRY_CODE":"US","ECCENTRICITY":"0.00024360","REF_FRAME":"TEME","APOAPSIS":"369.009","NORAD_CAT_ID":"47755","BSTAR":"0.00373630000000","FILE":"3359665","CENTER_NAME":"EARTH","MEAN_ANOMALY":"323.2020","EPHEMERIS_TYPE":"0"},{"ELEMENT_SET_NO":"999","PERIAPSIS":"546.110","MEAN_ELEMENT_THEORY":"SGP4","OBJECT_TYPE":"PAYLOAD","TLE_LINE2":"2 47756  53.0527 267.6248 0001568  73.6760 286.4401 15.06405839 58332","GP_ID":"198769309","OBJECT_NAME":"STARLINK-2174","ECCENTRICITY":"0.00015680","COUNTRY_CODE":"US","REF_FRAME":"TEME","APOAPSIS":"548.282","NORAD_CAT_ID":"47756","BSTAR":"0.00010760000000","FILE":"3359665","CENTER_NAME":"EARTH","MEAN_ANOMALY":"286.4401","EPHEMERIS_TYPE":"0","REV_AT_EPOCH":"5833","EPOCH":"2022-03-14T17:50:57.130656","PERIOD":"95.592","SITE":"AFETR","MEAN_MOTION_DDOT":"0.0000000000000","OBJECT_ID":"2021-017AL","RA_OF_ASC_NODE":"267.6248","TIME_SYSTEM":"UTC","MEAN_MOTION_DOT":"0.00001322","RCS_SIZE":"LARGE","MEAN_MOTION":"15.06405839","SEMIMAJOR_AXIS":"6925.331","DECAY_DATE":null,"TLE_LINE1":"1 47756U 21017AL  22073.74371679  .00001322  00000-0  10760-3 0  9993","ARG_OF_PERICENTER":"73.6760","LAUNCH_DATE":"2021-03-04","CLASSIFICATION_TYPE":"U","INCLINATION":"53.0527"},{"GP_ID":"198767558","OBJECT_NAME":"STARLINK-2175","OBJECT_TYPE":"PAYLOAD","TLE_LINE2":"2 47757  53.0542 267.3962 0001649  59.3416 300.7735 15.06401076 58282","ELEMENT_SET_NO":"999","MEAN_ELEMENT_THEORY":"SGP4","PERIAPSIS":"546.068","EPHEMERIS_TYPE":"0","BSTAR":"-0.00004593200000","FILE":"3359665","MEAN_ANOMALY":"300.7735","CENTER_NAME":"EARTH","APOAPSIS":"548.352","NORAD_CAT_ID":"47757","COUNTRY_CODE":"US","ECCENTRICITY":"0.00016490","REF_FRAME":"TEME","SITE":"AFETR","MEAN_MOTION_DDOT":"0.0000000000000","OBJECT_ID":"2021-017AM","RA_OF_ASC_NODE":"267.3962","TIME_SYSTEM":"UTC","PERIOD":"95.592","EPOCH":"2022-03-14T19:05:15.405216","REV_AT_EPOCH":"5828","LAUNCH_DATE":"2021-03-04","CLASSIFICATION_TYPE":"U","INCLINATION":"53.0542","SEMIMAJOR_AXIS":"6925.345","DECAY_DATE":null,"TLE_LINE1":"1 47757U 21017AM  22073.79531719 -.00000966  00000-0 -45932-4 0  9997","ARG_OF_PERICENTER":"59.3416","MEAN_MOTION":"15.06401076","MEAN_MOTION_DOT":"-0.00000966","RCS_SIZE":"LARGE"},{"MEAN_MOTION_DOT":"0.00579796","RCS_SIZE":"LARGE","MEAN_MOTION":"15.71778869","SEMIMAJOR_AXIS":"6731.950","TLE_LINE1":"1 47758U 21017AN  22073.77987668  .00579796  00000-0  40950-2 0  9997","DECAY_DATE":null,"ARG_OF_PERICENTER":"33.4685","LAUNCH_DATE":"2021-03-04","CLASSIFICATION_TYPE":"U","INCLINATION":"53.0547","REV_AT_EPOCH":"5866","EPOCH":"2022-03-14T18:43:01.345152","PERIOD":"91.616","SITE":"AFETR","OBJECT_ID":"2021-017AN","MEAN_MOTION_DDOT":"0.0000000000000","RA_OF_ASC_NODE":"244.6131","TIME_SYSTEM":"UTC","ECCENTRICITY":"0.00008820","COUNTRY_CODE":"US","REF_FRAME":"TEME","APOAPSIS":"354.409","NORAD_CAT_ID":"47758","BSTAR":"0.00409500000000","FILE":"3359665","CENTER_NAME":"EARTH","MEAN_ANOMALY":"326.6388","EPHEMERIS_TYPE":"0","ELEMENT_SET_NO":"999","MEAN_ELEMENT_THEORY":"SGP4","PERIAPSIS":"353.221","OBJECT_TYPE":"PAYLOAD","TLE_LINE2":"2 47758  53.0547 244.6131 0000882  33.4685 326.6388 15.71778869 58665","GP_ID":"198767807","OBJECT_NAME":"STARLINK-2176"},{"MEAN_MOTION":"15.06407005","RCS_SIZE":"LARGE","MEAN_MOTION_DOT":"0.00000316","INCLINATION":"53.0544","LAUNCH_DATE":"2021-03-04","CLASSIFICATION_TYPE":"U","SEMIMAJOR_AXIS":"6925.327","ARG_OF_PERICENTER":"57.1069","TLE_LINE1":"1 47760U 21017AQ  22073.82756453  .00000316  00000-0  40137-4 0  9998","DECAY_DATE":null,"EPOCH":"2022-03-14T19:51:41.575392","REV_AT_EPOCH":"5818","SITE":"AFETR","OBJECT_ID":"2021-017AQ","MEAN_MOTION_DDOT":"0.0000000000000","TIME_SYSTEM":"UTC","RA_OF_ASC_NODE":"277.2424","PERIOD":"95.592","NORAD_CAT_ID":"47760","APOAPSIS":"548.407","COUNTRY_CODE":"US","ECCENTRICITY":"0.00017550","REF_FRAME":"TEME","EPHEMERIS_TYPE":"0","FILE":"3359665","BSTAR":"0.00004013700000","CENTER_NAME":"EARTH","MEAN_ANOMALY":"303.0089","ELEMENT_SET_NO":"999","PERIAPSIS":"545.977","MEAN_ELEMENT_THEORY":"SGP4","GP_ID":"198768559","OBJECT_NAME":"STARLINK-2178","OBJECT_TYPE":"PAYLOAD","TLE_LINE2":"2 47760  53.0544 277.2424 0001755  57.1069 303.0089 15.06407005 58184"},{"TLE_LINE2":"2 47761  53.0543 267.4054 0001865  62.4380 297.6798 15.06398039 58294","OBJECT_TYPE":"PAYLOAD","OBJECT_NAME":"STARLINK-2179","GP_ID":"198768810","PERIAPSIS":"545.928","MEAN_ELEMENT_THEORY":"SGP4","ELEMENT_SET_NO":"999","CENTER_NAME":"EARTH","MEAN_ANOMALY":"297.6798","FILE":"3359665","BSTAR":"-0.00006182500000","EPHEMERIS_TYPE":"0","REF_FRAME":"TEME","COUNTRY_CODE":"US","ECCENTRICITY":"0.00018650","NORAD_CAT_ID":"47761","APOAPSIS":"548.511","PERIOD":"95.592","TIME_SYSTEM":"UTC","RA_OF_ASC_NODE":"267.4054","OBJECT_ID":"2021-017AR","SITE":"AFETR","MEAN_MOTION_DDOT":"0.0000000000000","REV_AT_EPOCH":"5829","EPOCH":"2022-03-14T18:59:57.486048","ARG_OF_PERICENTER":"62.4380","DECAY_DATE":null,"TLE_LINE1":"1 47761U 21017AR  22073.79163757 -.00001202  00000-0 -61825-4 0  9998","SEMIMAJOR_AXIS":"6925.355","INCLINATION":"53.0543","LAUNCH_DATE":"2021-03-04","CLASSIFICATION_TYPE":"U","RCS_SIZE":"LARGE","MEAN_MOTION_DOT":"-0.00001202","MEAN_MOTION":"15.06398039"}];
